     2.11           N: GPS NAV DATA                         RINEX VERSION / TYPE
teqc  2019Feb25                         20221121 12:26:52UTCPGM / RUN BY / DATE
OSX ker:10.11.6|Core i5|gcc 4.3 -m64|OSX ker:10.10+|=+      COMMENT
    6.5193D-09  1.4901D-08 -5.9605D-08 -1.1921D-07          ION ALPHA
    7.7824D+04  3.2768D+04 -6.5536D+04 -1.9661D+05          ION BETA
    5.587935447693D-09 1.154631945610D-14   503808     1547 DELTA-UTC: A0,A1,T,W
                                                            END OF HEADER
11 09  9  3  0  0  0.0-1.788279041648D-05-1.591615728103D-12 0.000000000000D+00
    3.500000000000D+01 5.812500000000D+01 6.602417874349D-09 1.872914951568D+00
    3.010034561157D-06 9.747219155543D-03 6.916001439095D-06 5.153695411682D+03
    3.456000000000D+05-2.793967723846D-07-2.370945122444D+00 0.000000000000D+00
    8.892011761239D-01 2.088750000000D+02 7.207999712749D-01-9.055377192808D-09
    5.228789228631D-10 1.000000000000D+00 1.547000000000D+03 0.000000000000D+00
    2.000000000000D+00 0.000000000000D+00-1.164153218269D-08 3.500000000000D+01
    3.384180000000D+05 4.000000000000D+00
28 09  9  3  0  0  0.0-2.620555460453D-05 0.000000000000D+00 0.000000000000D+00
    7.000000000000D+01-9.731250000000D+01 4.578404994660D-09-9.563172331256D-01
   -4.677101969719D-06 1.505928148981D-02 5.358830094337D-06 5.153652507782D+03
    3.456000000000D+05 4.284083843231D-08 2.068794663110D+00 3.576278686523D-07
    9.673967851020D-01 2.796250000000D+02-2.019088444532D+00-8.392849595874D-09
   -2.510818871398D-10 1.000000000000D+00 1.547000000000D+03 0.000000000000D+00
    2.800000000000D+00 0.000000000000D+00-1.024454832077D-08 7.000000000000D+01
    3.384180000000D+05 4.000000000000D+00
17 09  9  3  0  0  0.0 8.192844688892D-05 2.842170943040D-12 0.000000000000D+00
    9.600000000000D+01-3.246875000000D+01 4.348395413837D-09-1.505440230463D+00
   -1.631677150726D-06 4.642119165510D-03 1.227855682373D-05 5.153737949371D+03
    3.456000000000D+05 7.636845111847D-08 3.103153952944D+00 3.725290298462D-09
    9.603600745319D-01 1.408125000000D+02-2.640747822478D+00-7.815682697413D-09
    3.564434187277D-10 1.000000000000D+00 1.547000000000D+03 0.000000000000D+00
    2.800000000000D+00 0.000000000000D+00-1.024454832077D-08 9.600000000000D+01
    3.384180000000D+05 4.000000000000D+00
 9 09  9  3  0  0  0.0 7.536541670561D-05 2.046363078989D-12 0.000000000000D+00
    1.010000000000D+02 7.359375000000D+01 4.348395413837D-09 1.099240073841D+00
    3.498047590256D-06 2.072930161376D-02 4.392117261887D-06 5.153625616074D+03
    3.456000000000D+05-3.110617399216D-07 9.571729421865D-01-2.291053533554D-07
    9.773560739121D-01 3.056562500000D+02 1.510109238843D+00-8.448209044674D-09
    2.892977646988D-10 1.000000000000D+00 1.547000000000D+03 0.000000000000D+00
    2.000000000000D+00 0.000000000000D+00-5.587935447693D-09 1.010000000000D+02
    3.384180000000D+05 4.000000000000D+00
27 09  9  3  0  0  0.0 7.948651909828D-05 3.183231456205D-12 0.000000000000D+00
    1.030000000000D+02 8.700000000000D+01 4.121243094889D-09-1.889420359908D+00
    4.963949322701D-06 2.132902364247D-02 3.466382622719D-06 5.153746232986D+03
    3.456000000000D+05 3.185123205185D-07 9.328991682064D-01 3.613531589508D-07
    9.754208644343D-01 3.158437500000D+02-1.551171633325D+00-7.931401803292D-09
    4.010881355022D-10 1.000000000000D+00 1.547000000000D+03 0.000000000000D+00
    2.800000000000D+00 0.000000000000D+00-4.190951585770D-09 1.030000000000D+02
    3.384180000000D+05 4.000000000000D+00
14 09  9  3  0  0  0.0-5.633896216750D-05 5.343281372916D-12 0.000000000000D+00
    5.900000000000D+01 6.093750000000D+01 3.501931583793D-09-2.002973777223D+00
    3.183260560036D-06 4.856632207520D-03 1.144781708717D-05 5.153643608093D+03
    3.456000000000D+05 5.960464477539D-08-1.664601671055D-02-1.359730958939D-07
    9.882813421591D-01 1.775937500000D+02-2.162726485416D+00-7.378521630757D-09
   -7.357449324439D-11 1.000000000000D+00 1.547000000000D+03 0.000000000000D+00
    2.000000000000D+00 0.000000000000D+00-8.847564458847D-09 5.900000000000D+01
    3.384180000000D+05 4.000000000000D+00
32 09  9  3  0  0  0.0 2.037743106484D-04-6.934897101019D-12 0.000000000000D+00
    7.000000000000D+00-4.246875000000D+01 4.607691928864D-09 2.760072675443D+00
   -2.138316631317D-06 1.325634110253D-02 7.566064596176D-06 5.153729372025D+03
    3.456000000000D+05 2.551823854446D-07-1.018661115301D+00 1.359730958939D-07
    9.623955290082D-01 2.305312500000D+02-1.125108429991D+00-7.896400345341D-09
   -7.057436827715D-10 1.000000000000D+00 1.547000000000D+03 0.000000000000D+00
    2.000000000000D+00 0.000000000000D+00-3.259629011154D-09 7.000000000000D+00
    3.384180000000D+05 4.000000000000D+00
26 09  9  3  0  0  0.0 6.365031003952D-05-7.958078640513D-13 0.000000000000D+00
    8.700000000000D+01 4.731250000000D+01 3.449429396866D-09 1.436344112378D+00
    2.391636371613D-06 1.970995997544D-02 1.196190714836D-05 5.153611932755D+03
    3.456000000000D+05-3.743916749954D-07 9.121894020643D-04-1.154839992523D-07
    9.926516416853D-01 1.757812500000D+02 1.024101559883D+00-7.638889618986D-09
   -1.839362331110D-10 1.000000000000D+00 1.547000000000D+03 0.000000000000D+00
    2.000000000000D+00 0.000000000000D+00-6.053596735001D-09 8.700000000000D+01
    3.384480000000D+05 4.000000000000D+00
 4 09  9  3  0  0  0.0-2.479851245880D-04-1.728039933369D-11 0.000000000000D+00
    6.800000000000D+01 4.112500000000D+01 5.523087201608D-09 2.768900261067D-01
    2.270564436913D-06 8.708451059647D-03 5.317851901054D-06 5.153787408829D+03
    3.456000000000D+05 1.490116119385D-08-2.147550199594D+00 6.146728992462D-08
    9.399366526601D-01 2.628437500000D+02 5.092632326978D-01-8.665003789331D-09
    2.717970357232D-10 1.000000000000D+00 1.547000000000D+03 0.000000000000D+00
    2.000000000000D+00 0.000000000000D+00-6.053596735001D-09 6.800000000000D+01
    3.425280000000D+05 4.000000000000D+00
12 09  9  3  0  0  0.0-2.248124219477D-04 5.798028723802D-12 0.000000000000D+00
    9.500000000000D+01-9.109375000000D+01 4.482329564161D-09 2.034114534018D+00
   -4.988163709641D-06 3.104432136752D-03 4.895031452179D-06 5.153585144043D+03
    3.456000000000D+05 1.676380634308D-08 2.043632485313D+00 2.235174179077D-08
    9.677808186528D-01 2.907500000000D+02-5.994789519617D-01-8.148910863418D-09
   -2.450102056585D-10 1.000000000000D+00 1.547000000000D+03 0.000000000000D+00
    2.000000000000D+00 0.000000000000D+00-1.164153218269D-08 9.500000000000D+01
    3.425880000000D+05 4.000000000000D+00
